{"type": "FeatureCollection", "features": [ {"type": "Feature", "properties": {"norad_id": 65304, "name": "DRAGON CRS-33", "group": "stations", "lat": -31.71987494056102, "lon": -51.488354961538086, "alt_km": 420.2579118939384, "timestamp": "2025-12-21T11:31:41.586494+00:00", "meta": {"OBJECT_NAME": "DRAGON CRS-33", "OBJECT_ID": "2025-186A", "EPOCH": "2025-12-20T16:00:06.135552", "MEAN_MOTION": 15.49686708, "ECCENTRICITY": 0.00031636, "INCLINATION": 51.6321, "RA_OF_ASC_NODE": 103.2234, "ARG_OF_PERICENTER": 277.4707, "MEAN_ANOMALY": 82.5922, "EPHEMERIS_TYPE": 0, "CLASSIFICATION_TYPE": "U", "NORAD_CAT_ID": 65304, "ELEMENT_SET_NO": 999, "REV_AT_EPOCH": 11, "BSTAR": 0.00013711052, "MEAN_MOTION_DOT": 7.293e-05, "MEAN_MOTION_DDOT": 0}, "tle": {"line1": "1 65304U 25186A   25354.66673768  .00007293  00000+0  13711-3 0  9994", "line2": "2 65304  51.6321 103.2234 0003163 277.4707  82.5922 15.49686708   114"}}, "geometry": {"type": "Point", "coordinates": [-51.488354961538086, -31.71987494056102]}}, {"type": "Feature", "properties": {"norad_id": 65586, "name": "PROGRESS-MS 32", "group": "stations", "lat": -31.71987538178486, "lon": -51.488354408034255, "alt_km": 420.2579119000284, "timestamp": "2025-12-21T11:31:41.586504+00:00", "meta": {"OBJECT_NAME": "PROGRESS-MS 32", "OBJECT_ID": "2025-204A", "EPOCH": "2025-12-20T16:00:06.135552", "MEAN_MOTION": 15.49686708, "ECCENTRICITY": 0.00031636, "INCLINATION": 51.6321, "RA_OF_ASC_NODE": 103.2234, "ARG_OF_PERICENTER": 277.4707, "MEAN_ANOMALY": 82.5922, "EPHEMERIS_TYPE": 0, "CLASSIFICATION_TYPE": "U", "NORAD_CAT_ID": 65586, "ELEMENT_SET_NO": 999, "REV_AT_EPOCH": 27, "BSTAR": 0.00013711052, "MEAN_MOTION_DOT": 7.293e-05, "MEAN_MOTION_DDOT": 0}, "tle": {"line1": "1 65586U 25204A   25354.66673768  .00007293  00000+0  13711-3 0  9997", "line2": "2 65586  51.6321 103.2234 0003163 277.4707  82.5922 15.49686708   273"}}, "geometry": {"type": "Point", "coordinates": [-51.488354408034255, -31.71987538178486]}}, {"type": "Feature", "properties": {"norad_id": 65616, "name": "CYGNUS NG-23", "group": "stations", "lat": -31.719875823007538, "lon": -51.48835385453188, "alt_km": 420.2579119061147, "timestamp": "2025-12-21T11:31:41.586514+00:00", "meta": {"OBJECT_NAME": "CYGNUS NG-23", "OBJECT_ID": "2025-208A", "EPOCH": "2025-12-20T16:00:06.135552", "MEAN_MOTION": 15.49686708, "ECCENTRICITY": 0.00031636, "INCLINATION": 51.6321, "RA_OF_ASC_NODE": 103.2234, "ARG_OF_PERICENTER": 277.4707, "MEAN_ANOMALY": 82.5922, "EPHEMERIS_TYPE": 0, "CLASSIFICATION_TYPE": "U", "NORAD_CAT_ID": 65616, "ELEMENT_SET_NO": 999, "REV_AT_EPOCH": 22, "BSTAR": 0.00013711052, "MEAN_MOTION_DOT": 7.293e-05, "MEAN_MOTION_DDOT": 0}, "tle": {"line1": "1 65616U 25208A   25354.66673768  .00007293  00000+0  13711-3 0  9995", "line2": "2 65616  51.6321 103.2234 0003163 277.4707  82.5922 15.49686708   222"}}, "geometry": {"type": "Point", "coordinates": [-51.48835385453188, -31.719875823007538]}}, {"type": "Feature", "properties": {"norad_id": 65729, "name": "DRAGONFLY", "group": "stations", "lat": -36.14047688055512, "lon": -53.729757580495296, "alt_km": 350.4535747266191, "timestamp": "2025-12-21T11:31:41.586525+00:00", "meta": {"OBJECT_NAME": "DRAGONFLY", "OBJECT_ID": "1998-067XH", "EPOCH": "2025-12-20T23:53:54.948768", "MEAN_MOTION": 15.74592316, "ECCENTRICITY": 0.0007599, "INCLINATION": 51.6248, "RA_OF_ASC_NODE": 93.4014, "ARG_OF_PERICENTER": 329.0075, "MEAN_ANOMALY": 31.0474, "EPHEMERIS_TYPE": 0, "CLASSIFICATION_TYPE": "U", "NORAD_CAT_ID": 65729, "ELEMENT_SET_NO": 999, "REV_AT_EPOCH": 1446, "BSTAR": 0.00097795, "MEAN_MOTION_DOT": 0.0014816, "MEAN_MOTION_DDOT": 0}, "tle": {"line1": "1 65729U 98067XH  25354.99577487  .00148160  00000+0  97795-3 0  9993", "line2": "2 65729  51.6248  93.4014 0007599 329.0075  31.0474 15.74592316 14461"}}, "geometry": {"type": "Point", "coordinates": [-53.729757580495296, -36.14047688055512]}}, {"type": "Feature", "properties": {"norad_id": 65731, "name": "1998-067XK", "group": "stations", "lat": 29.01263649148702, "lon": 118.89688681386072, "alt_km": 363.5286341974861, "timestamp": "2025-12-21T11:31:41.586536+00:00", "meta": {"OBJECT_NAME": "1998-067XK", "OBJECT_ID": "1998-067XK", "EPOCH": "2025-12-20T00:10:02.026560", "MEAN_MOTION": 15.67078773, "ECCENTRICITY": 0.00047639, "INCLINATION": 51.6294, "RA_OF_ASC_NODE": 100.3244, "ARG_OF_PERICENTER": 292.7833, "MEAN_ANOMALY": 67.2659, "EPHEMERIS_TYPE": 0, "CLASSIFICATION_TYPE": "U", "NORAD_CAT_ID": 65731, "ELEMENT_SET_NO": 999, "REV_AT_EPOCH": 1428, "BSTAR": 0.00070175188, "MEAN_MOTION_DOT": 0.00076617, "MEAN_MOTION_DDOT": 0}, "tle": {"line1": "1 65731U 98067XK  25354.00696790  .00076617  00000+0  70175-3 0  9997", "line2": "2 65731  51.6294 100.3244 0004763 292.7833  67.2659 15.67078773 14280"}}, "geometry": {"type": "Point", "coordinates": [118.89688681386072, 29.01263649148702]}}, {"type": "Feature", "properties": {"norad_id": 65732, "name": "RSP-03", "group": "stations", "lat": 47.38762207269581, "lon": -147.55746198652892, "alt_km": 353.9957574208729, "timestamp": "2025-12-21T11:31:41.586549+00:00", "meta": {"OBJECT_NAME": "RSP-03", "OBJECT_ID": "1998-067XL", "EPOCH": "2025-12-19T10:11:34.022112", "MEAN_MOTION": 15.70283101, "ECCENTRICITY": 0.0005658, "INCLINATION": 51.6265, "RA_OF_ASC_NODE": 102.4221, "ARG_OF_PERICENTER": 294.5755, "MEAN_ANOMALY": 65.4652, "EPHEMERIS_TYPE": 0, "CLASSIFICATION_TYPE": "U", "NORAD_CAT_ID": 65732, "ELEMENT_SET_NO": 999, "REV_AT_EPOCH": 1421, "BSTAR": 0.00084699, "MEAN_MOTION_DOT": 0.00106087, "MEAN_MOTION_DDOT": 0}, "tle": {"line1": "1 65732U 98067XL  25353.42469933  .00106087  00000+0  84699-3 0  9991", "line2": "2 65732  51.6265 102.4221 0005658 294.5755  65.4652 15.70283101 14217"}}, "geometry": {"type": "Point", "coordinates": [-147.55746198652892, 47.38762207269581]}}, {"type": "Feature", "properties": {"norad_id": 65733, "name": "GHS-01", "group": "stations", "lat": -46.7274871773032, "lon": -32.560243114419826, "alt_km": 338.69732446300895, "timestamp": "2025-12-21T11:31:41.586560+00:00", "meta": {"OBJECT_NAME": "GHS-01", "OBJECT_ID": "1998-067XM", "EPOCH": "2025-12-20T20:48:16.616736", "MEAN_MOTION": 15.78264092, "ECCENTRICITY": 0.0008588, "INCLINATION": 51.6278, "RA_OF_ASC_NODE": 93.2966, "ARG_OF_PERICENTER": 331.6414, "MEAN_ANOMALY": 28.4119, "EPHEMERIS_TYPE": 0, "CLASSIFICATION_TYPE": "U", "NORAD_CAT_ID": 65733, "ELEMENT_SET_NO": 999, "REV_AT_EPOCH": 1446, "BSTAR": 0.0010694, "MEAN_MOTION_DOT": 0.00191722, "MEAN_MOTION_DDOT": 0}, "tle": {"line1": "1 65733U 98067XM  25354.86685899  .00191722  00000+0  10694-2 0  9995", "line2": "2 65733  51.6278  93.2966 0008588 331.6414  28.4119 15.78264092 14465"}}, "geometry": {"type": "Point", "coordinates": [-32.560243114419826, -46.7274871773032]}}, {"type": "Feature", "properties": {"norad_id": 65941, "name": "YOTSUBA-KULOVER", "group": "stations", "lat": -34.740001410779676, "lon": 62.676958399007646, "alt_km": 388.85479221181595, "timestamp": "2025-12-21T11:31:41.586571+00:00", "meta": {"OBJECT_NAME": "YOTSUBA-KULOVER", "OBJECT_ID": "1998-067XN", "EPOCH": "2025-12-20T17:17:02.919552", "MEAN_MOTION": 15.60468016, "ECCENTRICITY": 0.00018346, "INCLINATION": 51.6291, "RA_OF_ASC_NODE": 99.8352, "ARG_OF_PERICENTER": 329.1843, "MEAN_ANOMALY": 30.9043, "EPHEMERIS_TYPE": 0, "CLASSIFICATION_TYPE": "U", "NORAD_CAT_ID": 65941, "ELEMENT_SET_NO": 999, "REV_AT_EPOCH": 1110, "BSTAR": 0.00060496039, "MEAN_MOTION_DOT": 0.00050568, "MEAN_MOTION_DDOT": 0}, "tle": {"line1": "1 65941U 98067XN  25354.72017268  .00050568  00000+0  60496-3 0  9998", "line2": "2 65941  51.6291  99.8352 0001834 329.1843  30.9043 15.60468016 11102"}}, "geometry": {"type": "Point", "coordinates": [62.676958399007646, -34.740001410779676]}}, {"type": "Feature", "properties": {"norad_id": 65942, "name": "BOTAN", "group": "stations", "lat": 30.332141221918917, "lon": 122.69524749565834, "alt_km": 370.6540687425022, "timestamp": "2025-12-21T11:31:41.586585+00:00", "meta": {"OBJECT_NAME": "BOTAN", "OBJECT_ID": "1998-067XP", "EPOCH": "2025-12-20T13:53:44.237472", "MEAN_MOTION": 15.64441775, "ECCENTRICITY": 0.00029505, "INCLINATION": 51.6283, "RA_OF_ASC_NODE": 99.6415, "ARG_OF_PERICENTER": 304.2475, "MEAN_ANOMALY": 55.824, "EPHEMERIS_TYPE": 0, "CLASSIFICATION_TYPE": "U", "NORAD_CAT_ID": 65942, "ELEMENT_SET_NO": 999, "REV_AT_EPOCH": 1109, "BSTAR": 0.00083574073, "MEAN_MOTION_DOT": 0.00082185, "MEAN_MOTION_DDOT": 0}, "tle": {"line1": "1 65942U 98067XP  25354.57898423  .00082185  00000+0  83574-3 0  9994", "line2": "2 65942  51.6283  99.6415 0002950 304.2475  55.8240 15.64441775 11097"}}, "geometry": {"type": "Point", "coordinates": [122.69524749565834, 30.332141221918917]}}, {"type": "Feature", "properties": {"norad_id": 65943, "name": "E-KAGAKU-1", "group": "stations", "lat": -34.83818000996748, "lon": 62.54032921529054, "alt_km": 389.20159282597797, "timestamp": "2025-12-21T11:31:41.586596+00:00", "meta": {"OBJECT_NAME": "E-KAGAKU-1", "OBJECT_ID": "1998-067XQ", "EPOCH": "2025-12-18T08:24:49.666176", "MEAN_MOTION": 15.60193795, "ECCENTRICITY": 0.00013451, "INCLINATION": 51.6302, "RA_OF_ASC_NODE": 111.7666, "ARG_OF_PERICENTER": 249.8249, "MEAN_ANOMALY": 110.26, "EPHEMERIS_TYPE": 0, "CLASSIFICATION_TYPE": "U", "NORAD_CAT_ID": 65943, "ELEMENT_SET_NO": 999, "REV_AT_EPOCH": 1073, "BSTAR": 0.00084619625, "MEAN_MOTION_DOT": 0.00070368, "MEAN_MOTION_DDOT": 0}, "tle": {"line1": "1 65943U 98067XQ  25352.35057484  .00070368  00000+0  84620-3 0  9996", "line2": "2 65943  51.6302 111.7666 0001345 249.8249 110.2600 15.60193795 10732"}}, "geometry": {"type": "Point", "coordinates": [62.54032921529054, -34.83818000996748]}}]}